SL-16 R/B               
1 23405U 94077B   26198.08212835  .00000034  00000+0  41764-4 0  9998
2 23405  70.9821  80.2696 0004103 301.9446  58.1278 14.15574322634546
ARIANE 40+ R/B          
1 23561U 95021B   26198.20585874  .00000113  00000+0  49737-4 0  9997
2 23561  98.4399 267.8452 0007946 111.3729 267.5651 14.39848217637886
SL-16 R/B               
1 23705U 95058B   26198.16600784  .00000254  00000+0  15433-3 0  9991
2 23705  71.0208 268.4177 0014629 280.2644  79.6829 14.15509802586173
SL-16 R/B               
1 24298U 96051B   26198.20040434  .00000151  00000+0  10848-3 0  9999
2 24298  70.7645 261.1336 0017930 295.5028  64.4236 14.12457307539937
ORBVIEW 2 (SEASTAR)     
1 24883U 97037A   26198.19957348  .00000080  00000+0  43974-4 0  9991
2 24883  98.8714   6.0545 0003035  56.9838 303.1637 14.35567248527051
SL-16 R/B               
1 25400U 98043G   26197.90125441  .00000001  00000+0  19552-4 0  9992
2 25400  98.8380 152.3188 0009940   6.6678 353.4632 14.26072900457409
SL-16 R/B               
1 25407U 98045B   26198.18403804 -.00000103  00000+0 -27882-4 0  9994
2 25407  71.0107 269.2461 0008076 203.5279 156.5476 14.16205011445430
ISS (ZARYA)             
1 25544U 98067A   26198.25023249  .00003610  00000+0  73578-4 0  9996
2 25544  51.6315 151.3159 0006795 305.6667  54.3688 15.49030578576417
CZ-4B R/B               
1 25732U 99025C   26198.04022434 -.00000001  00000+0  20305-4 0  9994
2 25732  98.6470 239.1252 0036546 334.3715  35.9973 14.18287902406502
OKEAN-O                 
1 25860U 99039A   26198.15323866  .00000258  00000+0  40488-4 0  9993
2 25860  97.9300 256.6046 0000870  91.1885 268.9427 14.80498658453549
SL-16 R/B               
1 25861U 99039B   26198.14722316  .00000226  00000+0  35343-4 0  9995
2 25861  97.9822 256.9223 0014458 191.9612 168.1260 14.81871856456032
DELTA 2 R/B             
1 25876U 99041E   26198.25740098  .00001025  00000+0  20361-3 0  9994
2 25876  51.7611 143.6563 0501425  10.8454 350.2827 14.12090048381332
HELIOS 1B               
1 25977U 99064A   26198.16910966  .00000610  00000+0  72684-4 0  9999
2 25977  98.1581 104.1735 0001811  52.1499 307.9880 14.88077720704512
TERRA                   
1 25994U 99068A   26198.22030542  .00000172  00000+0  43912-4 0  9997
2 25994  97.9440 246.5733 0003489 118.7184 314.4319 14.61124594413996
SL-16 R/B               
1 26070U 00006B   26198.23298144 -.00000024  00000+0  11899-4 0  9998
2 26070  71.0002 185.4481 0017243 337.2618  22.7739 14.15837954366894
TITAN 4B R/B            
1 26474U 00047B   26198.25967466  .00001212  00000+0  80467-4 0  9999
2 26474  67.9873  35.9149 0045776 256.7081 102.8962 15.10338713412472
ENVISAT                 
1 27386U 02009A   26198.30757993  .00000018  00000+0  19692-4 0  9995
2 27386  98.3846 148.9568 0001322  82.8193  90.2012 14.39070990277817
IDEFIX & ARIANE 42P R/B 
1 27422U 02021B   26198.26374811  .00000080  00000+0  46854-4 0  9998
2 27422  98.5941 135.4218 0012023 160.4674 199.6972 14.31094255262552
AQUA                    
1 27424U 02022A   26198.23213147  .00000338  00000+0  76968-4 0  9997
2 27424  98.4298 168.1195 0001226 101.4578 317.4190 14.62130152287668
CZ-4B R/B               
1 27432U 02024C   26198.08101090 -.00000002  00000+0  22050-4 0  9996
2 27432  98.8684 250.7044 0050371  16.6655   1.5139 14.14568410247534
MIDORI II (ADEOS-II)    
1 27597U 02056A   26198.30858556  .00000090  00000+0  53025-4 0  9996
2 27597  98.7896 157.8276 0001387  38.6491 321.4789 14.29363612228817
H-2A R/B                
1 27601U 02056E   26198.31838492  .00000117  00000+0  55424-4 0  9995
2 27601  98.3329 153.8973 0070989 134.6598  32.0770 14.33834566232680
CZ-4B R/B               
1 28059U 03049C   26198.28092014  .00000112  00000+0  37313-4 0  9996
2 28059  98.6911 198.3274 0047757 194.8421 165.1376 14.55116808205446
CZ-2C R/B               
1 28222U 04012C   26197.82281371  .00112094  00000+0  46138-3 0  9991
2 28222  97.7045 277.0808 0011035 186.1120 174.0017 15.85560346224585
SL-16 R/B               
1 28353U 04021B   26197.57744234 -.00000064  00000+0 -82895-5 0  9997
2 28353  71.0029 322.0077 0006263 223.9423 136.1202 14.14616508141068
CZ-4B R/B               
1 28415U 04035C   26198.07036126  .00004035  00000+0  13556-3 0  9997
2 28415  97.3352 230.8131 0029378 225.6757 134.2076 15.31007126199695
CZ-2C R/B               
1 28480U 04046B   26198.13146946  .00000062  00000+0  37678-4 0  9998
2 28480  98.1913 105.0364 0140237 131.7007 229.6273 14.27033576126963
ARIANE 5 R/B            
1 28499U 04049H   26197.97036781  .00000206  00000+0  29717-4 0  9992
2 28499  98.2743  11.3789 0082578 292.4432  66.8051 14.85479885164985
CZ-2D R/B               
1 28738U 05024B   26197.96056428  .00044203  00000+0  32600-3 0  9990
2 28738  97.3465 218.9494 0002702 186.5626 173.5603 15.72905116160016
ALOS (DAICHI)           
1 28931U 06002A   26198.31109744  .00000470  00000+0  86527-4 0  9998
2 28931  98.1339 153.7884 0000867 104.8146 255.3156 14.70104183 92523
